{"type": "FeatureCollection", "features": [ {"type": "Feature", "properties": {"norad_id": 36073, "name": "COSMOS 2251 DEB", "group": "cosmos-2251-debris", "lat": 9.227288701590009, "lon": -33.86002356496057, "alt_km": 760.801574173548, "timestamp": "2025-12-12T05:47:29.168574+00:00", "meta": {"OBJECT_NAME": "COSMOS 2251 DEB", "OBJECT_ID": "1993-036AYL", "EPOCH": "2025-12-10T05:13:27.011136", "MEAN_MOTION": 14.34947803, "ECCENTRICITY": 0.0023742, "INCLINATION": 74.0319, "RA_OF_ASC_NODE": 327.182, "ARG_OF_PERICENTER": 35.9086, "MEAN_ANOMALY": 324.3656, "EPHEMERIS_TYPE": 0, "CLASSIFICATION_TYPE": "U", "NORAD_CAT_ID": 36073, "ELEMENT_SET_NO": 999, "REV_AT_EPOCH": 70171, "BSTAR": 0.00037536, "MEAN_MOTION_DOT": 1.045e-05, "MEAN_MOTION_DDOT": 0}, "tle": {"line1": "1 36073U 93036AYL 25344.21767374  .00001045  00000+0  37536-3 0  9991", "line2": "2 36073  74.0319 327.1820 0023742  35.9086 324.3656 14.34947803701715"}}, "geometry": {"type": "Point", "coordinates": [-33.86002356496057, 9.227288701590009]}}, {"type": "Feature", "properties": {"norad_id": 36074, "name": "COSMOS 2251 DEB", "group": "cosmos-2251-debris", "lat": 45.88751314705685, "lon": 144.19900609625293, "alt_km": 725.9386748233592, "timestamp": "2025-12-12T05:47:29.168584+00:00", "meta": {"OBJECT_NAME": "COSMOS 2251 DEB", "OBJECT_ID": "1993-036AYM", "EPOCH": "2025-12-04T07:35:54.379968", "MEAN_MOTION": 14.43651509, "ECCENTRICITY": 0.0041318, "INCLINATION": 73.9929, "RA_OF_ASC_NODE": 356.1864, "ARG_OF_PERICENTER": 90.6412, "MEAN_ANOMALY": 269.9479, "EPHEMERIS_TYPE": 0, "CLASSIFICATION_TYPE": "U", "NORAD_CAT_ID": 36074, "ELEMENT_SET_NO": 999, "REV_AT_EPOCH": 85788, "BSTAR": 0.0017767, "MEAN_MOTION_DOT": 6.071e-05, "MEAN_MOTION_DDOT": 0}, "tle": {"line1": "1 36074U 93036AYM 25338.31660162  .00006071  00000+0  17767-2 0  9990", "line2": "2 36074  73.9929 356.1864 0041318  90.6412 269.9479 14.43651509857883"}}, "geometry": {"type": "Point", "coordinates": [144.19900609625293, 45.88751314705685]}}, {"type": "Feature", "properties": {"norad_id": 36366, "name": "COSMOS 2251 DEB", "group": "cosmos-2251-debris", "lat": 73.28590797295831, "lon": -13.949348211634685, "alt_km": 824.5240887033988, "timestamp": "2025-12-12T05:47:29.168594+00:00", "meta": {"OBJECT_NAME": "COSMOS 2251 DEB", "OBJECT_ID": "1993-036AYT", "EPOCH": "2025-12-11T12:38:43.259712", "MEAN_MOTION": 14.33372709, "ECCENTRICITY": 0.00908134, "INCLINATION": 74.0648, "RA_OF_ASC_NODE": 275.2795, "ARG_OF_PERICENTER": 303.7675, "MEAN_ANOMALY": 55.4849, "EPHEMERIS_TYPE": 0, "CLASSIFICATION_TYPE": "U", "NORAD_CAT_ID": 36366, "ELEMENT_SET_NO": 999, "REV_AT_EPOCH": 86271, "BSTAR": 0.0030636872, "MEAN_MOTION_DOT": 8.83e-05, "MEAN_MOTION_DDOT": 0}, "tle": {"line1": "1 36366U 93036AYT 25345.52688958  .00008830  00000+0  30637-2 0  9994", "line2": "2 36366  74.0648 275.2795 0090813 303.7675  55.4849 14.33372709862712"}}, "geometry": {"type": "Point", "coordinates": [-13.949348211634685, 73.28590797295831]}}, {"type": "Feature", "properties": {"norad_id": 36367, "name": "COSMOS 2251 DEB", "group": "cosmos-2251-debris", "lat": -21.570625562941416, "lon": 58.73211434156367, "alt_km": 984.4307494584627, "timestamp": "2025-12-12T05:47:29.168604+00:00", "meta": {"OBJECT_NAME": "COSMOS 2251 DEB", "OBJECT_ID": "1993-036AYU", "EPOCH": "2025-12-11T01:04:58.660896", "MEAN_MOTION": 13.86314595, "ECCENTRICITY": 0.02625211, "INCLINATION": 74.1007, "RA_OF_ASC_NODE": 234.2792, "ARG_OF_PERICENTER": 307.5422, "MEAN_ANOMALY": 50.2108, "EPHEMERIS_TYPE": 0, "CLASSIFICATION_TYPE": "U", "NORAD_CAT_ID": 36367, "ELEMENT_SET_NO": 999, "REV_AT_EPOCH": 57506, "BSTAR": 0.0022824489, "MEAN_MOTION_DOT": 3.437e-05, "MEAN_MOTION_DDOT": 0}, "tle": {"line1": "1 36367U 93036AYU 25345.04512339  .00003437  00000+0  22824-2 0  9998", "line2": "2 36367  74.1007 234.2792 0262521 307.5422  50.2108 13.86314595575060"}}, "geometry": {"type": "Point", "coordinates": [58.73211434156367, -21.570625562941416]}}, {"type": "Feature", "properties": {"norad_id": 36369, "name": "COSMOS 2251 DEB", "group": "cosmos-2251-debris", "lat": -28.345487656297287, "lon": -99.41210439688832, "alt_km": 651.158833548353, "timestamp": "2025-12-12T05:47:29.168614+00:00", "meta": {"OBJECT_NAME": "COSMOS 2251 DEB", "OBJECT_ID": "1993-036AYW", "EPOCH": "2025-12-11T22:19:37.226208", "MEAN_MOTION": 14.73546352, "ECCENTRICITY": 0.00113486, "INCLINATION": 74.0308, "RA_OF_ASC_NODE": 72.3076, "ARG_OF_PERICENTER": 150.9218, "MEAN_ANOMALY": 209.2589, "EPHEMERIS_TYPE": 0, "CLASSIFICATION_TYPE": "U", "NORAD_CAT_ID": 36369, "ELEMENT_SET_NO": 999, "REV_AT_EPOCH": 85910, "BSTAR": 0.0022300605, "MEAN_MOTION_DOT": 0.00014521, "MEAN_MOTION_DDOT": 0}, "tle": {"line1": "1 36369U 93036AYW 25345.93029197  .00014521  00000+0  22301-2 0  9999", "line2": "2 36369  74.0308  72.3076 0011348 150.9218 209.2589 14.73546352859107"}}, "geometry": {"type": "Point", "coordinates": [-99.41210439688832, -28.345487656297287]}}, {"type": "Feature", "properties": {"norad_id": 36371, "name": "COSMOS 2251 DEB", "group": "cosmos-2251-debris", "lat": 51.996409941596376, "lon": -39.022232896306036, "alt_km": 652.0829728295848, "timestamp": "2025-12-12T05:47:29.168625+00:00", "meta": {"OBJECT_NAME": "COSMOS 2251 DEB", "OBJECT_ID": "1993-036AYY", "EPOCH": "2025-12-07T19:05:47.723136", "MEAN_MOTION": 14.70448722, "ECCENTRICITY": 0.00102244, "INCLINATION": 74.0118, "RA_OF_ASC_NODE": 171.1395, "ARG_OF_PERICENTER": 209.6534, "MEAN_ANOMALY": 150.4058, "EPHEMERIS_TYPE": 0, "CLASSIFICATION_TYPE": "U", "NORAD_CAT_ID": 36371, "ELEMENT_SET_NO": 999, "REV_AT_EPOCH": 71372, "BSTAR": 0.0029870702, "MEAN_MOTION_DOT": 0.00018131, "MEAN_MOTION_DDOT": 0}, "tle": {"line1": "1 36371U 93036AYY 25341.79569124  .00018131  00000+0  29871-2 0  9991", "line2": "2 36371  74.0118 171.1395 0010224 209.6534 150.4058 14.70448722713720"}}, "geometry": {"type": "Point", "coordinates": [-39.022232896306036, 51.996409941596376]}}, {"type": "Feature", "properties": {"norad_id": 36379, "name": "COSMOS 2251 DEB", "group": "cosmos-2251-debris", "lat": -11.03479173505012, "lon": -55.46235573273007, "alt_km": 774.4048199387034, "timestamp": "2025-12-12T05:47:29.168634+00:00", "meta": {"OBJECT_NAME": "COSMOS 2251 DEB", "OBJECT_ID": "1993-036AZG", "EPOCH": "2025-12-08T04:58:44.675328", "MEAN_MOTION": 14.36066652, "ECCENTRICITY": 0.00445661, "INCLINATION": 74.0122, "RA_OF_ASC_NODE": 315.1569, "ARG_OF_PERICENTER": 85.444, "MEAN_ANOMALY": 297.6264, "EPHEMERIS_TYPE": 0, "CLASSIFICATION_TYPE": "U", "NORAD_CAT_ID": 36379, "ELEMENT_SET_NO": 999, "REV_AT_EPOCH": 64763, "BSTAR": 0.0005365522, "MEAN_MOTION_DOT": 1.553e-05, "MEAN_MOTION_DDOT": 0}, "tle": {"line1": "1 36379U 93036AZG 25342.20746152  .00001553  00000+0  53655-3 0  9992", "line2": "2 36379  74.0122 315.1569 0044566  85.4440 297.6264 14.36066652647637"}}, "geometry": {"type": "Point", "coordinates": [-55.46235573273007, -11.03479173505012]}}, {"type": "Feature", "properties": {"norad_id": 36385, "name": "COSMOS 2251 DEB", "group": "cosmos-2251-debris", "lat": -50.49186454527098, "lon": -4.079713857678808, "alt_km": 669.6634394874427, "timestamp": "2025-12-12T05:47:29.168645+00:00", "meta": {"OBJECT_NAME": "COSMOS 2251 DEB", "OBJECT_ID": "1993-036AZN", "EPOCH": "2025-12-11T10:47:20.100480", "MEAN_MOTION": 14.72531354, "ECCENTRICITY": 0.01412648, "INCLINATION": 73.9695, "RA_OF_ASC_NODE": 157.0611, "ARG_OF_PERICENTER": 331.7559, "MEAN_ANOMALY": 27.6, "EPHEMERIS_TYPE": 0, "CLASSIFICATION_TYPE": "U", "NORAD_CAT_ID": 36385, "ELEMENT_SET_NO": 999, "REV_AT_EPOCH": 85083, "BSTAR": 0.0024868113, "MEAN_MOTION_DOT": 0.00018523, "MEAN_MOTION_DDOT": 0}, "tle": {"line1": "1 36385U 93036AZN 25345.44953820  .00018523  00000+0  24868-2 0  9998", "line2": "2 36385  73.9695 157.0611 0141264 331.7559  27.6000 14.72531354850832"}}, "geometry": {"type": "Point", "coordinates": [-4.079713857678808, -50.49186454527098]}}, {"type": "Feature", "properties": {"norad_id": 36420, "name": "COSMOS 2251 DEB", "group": "cosmos-2251-debris", "lat": -44.5821541292451, "lon": 112.78245174849847, "alt_km": 784.5369093807103, "timestamp": "2025-12-12T05:47:29.168656+00:00", "meta": {"OBJECT_NAME": "COSMOS 2251 DEB", "OBJECT_ID": "1993-036AZT", "EPOCH": "2025-12-09T05:12:09.080064", "MEAN_MOTION": 14.36895704, "ECCENTRICITY": 0.001793, "INCLINATION": 74.0374, "RA_OF_ASC_NODE": 281.9559, "ARG_OF_PERICENTER": 10.5601, "MEAN_ANOMALY": 57.255, "EPHEMERIS_TYPE": 0, "CLASSIFICATION_TYPE": "U", "NORAD_CAT_ID": 36420, "ELEMENT_SET_NO": 999, "REV_AT_EPOCH": 84986, "BSTAR": 0.00029505, "MEAN_MOTION_DOT": 8.48e-06, "MEAN_MOTION_DDOT": 0}, "tle": {"line1": "1 36420U 93036AZT 25343.21677176  .00000848  00000+0  29505-3 0  9993", "line2": "2 36420  74.0374 281.9559 0017930  10.5601  57.2550 14.36895704849860"}}, "geometry": {"type": "Point", "coordinates": [112.78245174849847, -44.5821541292451]}}, {"type": "Feature", "properties": {"norad_id": 36430, "name": "COSMOS 2251 DEB", "group": "cosmos-2251-debris", "lat": -72.9589473524792, "lon": -1.1927734724570398, "alt_km": 736.4346596703217, "timestamp": "2025-12-12T05:47:29.168666+00:00", "meta": {"OBJECT_NAME": "COSMOS 2251 DEB", "OBJECT_ID": "1993-036BAD", "EPOCH": "2025-12-07T15:14:59.696160", "MEAN_MOTION": 14.27773173, "ECCENTRICITY": 0.00973352, "INCLINATION": 74.0036, "RA_OF_ASC_NODE": 117.7938, "ARG_OF_PERICENTER": 268.8676, "MEAN_ANOMALY": 90.1319, "EPHEMERIS_TYPE": 0, "CLASSIFICATION_TYPE": "U", "NORAD_CAT_ID": 36430, "ELEMENT_SET_NO": 999, "REV_AT_EPOCH": 64484, "BSTAR": 0.00083938099, "MEAN_MOTION_DOT": 2.154e-05, "MEAN_MOTION_DDOT": 0}, "tle": {"line1": "1 36430U 93036BAD 25341.63541315  .00002154  00000+0  83938-3 0  9995", "line2": "2 36430  74.0036 117.7938 0097335 268.8676  90.1319 14.27773173644845"}}, "geometry": {"type": "Point", "coordinates": [-1.1927734724570398, -72.9589473524792]}}]}